satname,norad_id,inclination_deg,eccentricity,mean_motion_rev_per_day,perigee_km,apogee_km,l1,l2
STARLINK-1453,45670,53.0544,0.0001262,15.0640494,546.3224405138435,548.0703946684434,1 45670U 20035P   25262.53268976  .00000940  00000+0  81955-4 0  9999,2 45670  53.0544  84.9761 0001262  71.8353 288.2774 15.06404940293249
STARLINK-1454,45671,53.0543,0.0001444,15.06384871,546.2578995049835,548.2579535597652,1 45671U 20035Q   25262.61103802  .00001898  00000+0  14636-3 0  9999,2 45671  53.0543 114.6215 0001444  85.3679 274.7474 15.06384871292939
STARLINK-1456,45673,53.054,0.0001453,15.06405192,546.1893944184121,548.2018960851219,1 45673U 20035S   25261.82961566  .00005873  00000+0  41278-3 0  9991,2 45673  53.0540 118.1311 0001453  90.8526 269.2630 15.06405192292838
STARLINK-1457,45674,53.0547,0.0001616,15.06395005,546.1077281352709,548.3460057370639,1 45674U 20035T   25262.56679311 -.00001670  00000+0 -93234-4 0  9991,2 45674  53.0547 114.8189 0001616  88.5490 271.5684 15.06395005292912
STARLINK-1458,45675,53.0537,0.0001488,15.06399924,546.1812989672608,548.2422827674236,1 45675U 20035U   25262.62208366  .00002175  00000+0  16490-3 0  9994,2 45675  53.0537 114.5708 0001488  93.5421 266.5738 15.06399924292911
STARLINK-1460,45676,53.0538,0.0001386,15.06400178,546.2511591594493,548.1708656284854,1 45676U 20035V   25262.59260163  .00002852  00000+0  21025-3 0  9996,2 45676  53.0538 114.7021 0001386  89.9911 270.1237 15.06400178292901
STARLINK-1392,45677,53.0546,0.0001288,15.06393258,546.340233718618,548.1242088300178,1 45677U 20035W   25262.60365865  .00001988  00000+0  15235-3 0  9999,2 45677  53.0546 114.6527 0001288  95.0378 265.0758 15.06393258292942
STARLINK-1394,45679,53.0532,0.0001755,15.06412996,545.9563356747485,548.3871190380514,1 45679U 20035Y   25262.26913237  .00001472  00000+0  11768-3 0  9990,2 45679  53.0532 106.1556 0001755  83.1439 276.9749 15.06412996293035
STARLINK-1402,45685,53.0539,0.0001339,15.0638472,546.3310788907802,548.1856997760442,1 45685U 20035AE  25262.56531575  .00000713  00000+0  66799-4 0  9993,2 45685  53.0539  99.2469 0001339  85.7659 274.3483 15.06384720293168
STARLINK-1404,45686,53.0546,0.0001391,15.06396113,546.2601534175401,548.1867887005874,1 45686U 20035AF  25262.56034470  .00001564  00000+0  12390-3 0  9998,2 45686  53.0546 104.8504 0001391  94.7356 265.3791 15.06396113293084
STARLINK-1413,45689,53.0533,0.0001431,15.0639869,546.22455494933,548.2065908556942,1 45689U 20035AJ  25262.57877544  .00003169  00000+0  23157-3 0  9995,2 45689  53.0533 104.7627 0001431  88.6747 271.4406 15.06398690292991
STARLINK-1417,45693,53.0539,0.0001359,15.06398728,546.2743010389904,548.15661183665,1 45693U 20035AN  25262.57508801  .00001325  00000+0  10786-3 0  9993,2 45693  53.0539 104.7833 0001359 102.8613 257.2528 15.06398728293070
STARLINK-1420,45695,53.0545,0.0001351,15.06390023,546.3065174537969,548.1777548963928,1 45695U 20035AQ  25262.24424463 -.00001015  00000+0 -49303-4 0  9996,2 45695  53.0545  86.2569 0001351  98.4016 261.7127 15.06390023293310
STARLINK-1422,45696,53.0521,0.0001296,15.06434007,546.2098216763061,548.0048450075083,1 45696U 20035AR  25261.98899718  .00008084  00000+0  56047-3 0  9999,2 45696  53.0521 107.4178 0001296  77.2137 282.8997 15.06434007292986
STARLINK-1351,45697,53.0547,0.0001253,15.0639441,546.3609422151267,548.0964388571756,1 45697U 20035AS  25262.49583631  .00000403  00000+0  45931-4 0  9999,2 45697  53.0547  85.1365 0001253  92.8130 267.3002 15.06394410293354
STARLINK-1398,45699,53.0527,0.0005442,15.42978484,433.6154067803418,441.03335494727435,1 45699U 20035AU  25262.58339120  .00095131  00000+0  21089-2 0  9991,2 45699  53.0527  56.2529 0005442 146.6723 300.5356 15.42978484  5885
STARLINK-1400,45700,53.0544,0.0001433,15.06381669,546.2753298835578,548.2601508821517,1 45700U 20035AV  25262.53639191  .00001865  00000+0  14414-3 0  9996,2 45700  53.0544  84.9563 0001433  87.4777 272.6376 15.06381669293355
STARLINK-1403,45701,53.0541,0.0001535,15.06402875,546.1397068402803,548.2657861424532,1 45701U 20035AW  25262.49951736 -.00000133  00000+0  99753-5 0  9993,2 45701  53.0541  85.1212 0001535 111.5947 248.5206 15.06402875293344
STARLINK-1407,45703,53.0448,0.0007664,15.34075857,458.4232726916225,468.910389604006,1 45703U 20035AY  25262.62452497  .00041347  00000+0  12398-2 0  9998,2 45703  53.0448  52.3891 0007664 219.9115 140.1323 15.34075857293827
STARLINK-1411,45706,53.0569,0.0001281,15.28037489,480.80080868667847,482.55829368709146,1 45706U 20035BB  25262.58339120  .00055316  00000+0  19937-2 0  9990,2 45706  53.0569  78.7692 0001281 119.5344  57.1461 15.28037489  5893
STARLINK-1423,45710,53.0539,0.0001341,15.06400368,546.281740981135,548.1391191618804,1 45710U 20035BF  25262.52532245  .00001039  00000+0  88621-4 0  9993,2 45710  53.0539  85.0078 0001341  81.9009 278.2132 15.06400368293358
STARLINK-1433,45711,53.0541,0.0001325,15.06383173,546.3455152324932,548.1807462671431,1 45711U 20035BG  25262.24152021  .00002200  00000+0  16662-3 0  9999,2 45711  53.0541  86.2796 0001325  96.7315 263.3825 15.06383173293301
STARLINK-1434,45712,53.0521,0.0004061,15.11234553,529.6274816616879,535.2402473178263,1 45712U 20035BH  25262.53348826  .00027889  00000+0  16510-2 0  9993,2 45712  53.0521  83.1984 0004061 105.5941 254.5498 15.11234553293388
STARLINK-1465,45731,53.0534,0.0001024,15.06470093,546.2876076229268,547.7058750131491,1 45731U 20038B   25262.54001596 -.00035753  00000+0 -23889-2 0  9996,2 45731  53.0534 284.9392 0001024 112.5613 247.5485 15.06470093290398
STARLINK-1471,45735,53.049,0.0003342,15.38167071,449.2470938319593,453.81204296627675,1 45735U 20038F   25262.23208096  .00028857  00000+0  76387-3 0  9997,2 45735  53.0490 236.5442 0003342  48.4307 311.6982 15.38167071291057
STARLINK-1474,45738,53.0388,0.0005914,15.59711212,384.49041659964405,392.4939856187166,1 45738U 20038J   25262.58339120  .00155021  00000+0  18728-2 0  9999,2 45738  53.0388 199.4375 0005914 109.4556 212.6812 15.59711212  5947
STARLINK-1475,45739,53.0542,0.0008766,15.58720317,385.4255017875257,397.2937833012347,1 45739U 20038K   25262.58339120  .00135826  00000+0  17071-2 0  9991,2 45739  53.0542 167.1044 0008766  77.0683   3.6999 15.58720317  5987
STARLINK-1480,45741,53.0538,0.0001262,15.06387496,546.3758973380563,548.1238649868619,1 45741U 20038M   25262.45530795  .00003406  00000+0  24752-3 0  9994,2 45741  53.0538 285.3218 0001262  97.9606 262.1526 15.06387496290390
